[{"OBJECT_NAME":"TIANMU-1 17","OBJECT_ID":"2024-004C","EPOCH":"2026-03-09T22:46:08.436864","MEAN_MOTION":15.2591023,"ECCENTRICITY":0.00044458,"INCLINATION":97.4649,"RA_OF_ASC_NODE":254.963,"ARG_OF_PERICENTER":359.1343,"MEAN_ANOMALY":0.9887,"EPHEMERIS_TYPE":0,"CLASSIFICATION_TYPE":"U","NORAD_CAT_ID":58702,"ELEMENT_SET_NO":999,"REV_AT_EPOCH":12063,"BSTAR":0.00031387278,"MEAN_MOTION_DOT":7.979e-5,"MEAN_MOTION_DDOT":0},{"OBJECT_NAME":"CZ-2F DEB","OBJECT_ID":"2022-093H","EPOCH":"2026-03-09T22:47:12.359904","MEAN_MOTION":15.21733628,"ECCENTRICITY":0.00740619,"INCLINATION":50.0217,"RA_OF_ASC_NODE":315.3952,"ARG_OF_PERICENTER":34.8084,"MEAN_ANOMALY":325.7683,"EPHEMERIS_TYPE":0,"CLASSIFICATION_TYPE":"U","NORAD_CAT_ID":53364,"ELEMENT_SET_NO":999,"REV_AT_EPOCH":19831,"BSTAR":0.00048014935,"MEAN_MOTION_DOT":0.00011557,"MEAN_MOTION_DDOT":0}]
